SENTINEL-1A             
1 39634U 14016A   26191.27033398  .00000230  00000+0  58410-4 0  9997
2 39634  98.1787 198.4662 0001438  85.8306 274.3058 14.59200298653383
SENTINEL-1C             
1 62261U 24235A   26191.24116032  .00000081  00000+0  26970-4 0  9997
2 62261  98.1822 198.2213 0001376  89.9097 270.2261 14.59197595 84775
SENTINEL-1D             
1 66315U 25251A   26190.72702642 -.00000023  00000+0  48751-5 0  9999
2 66315  98.1830 197.7693 0001384  90.8533 269.2825 14.59197989 36014
